OBJECT_NAME,OBJECT_ID,EPOCH,MEAN_MOTION,ECCENTRICITY,INCLINATION,RA_OF_ASC_NODE,ARG_OF_PERICENTER,MEAN_ANOMALY,EPHEMERIS_TYPE,CLASSIFICATION_TYPE,NORAD_CAT_ID,ELEMENT_SET_NO,REV_AT_EPOCH,BSTAR,MEAN_MOTION_DOT,MEAN_MOTION_DDOT
FLOCK 4BE-29,2024-149AT,2026-06-30T04:53:25.775520,15.44561964,.00022071,97.3822,267.2755,216.4069,143.7030,0,U,60509,999,10442,.36507526E-3,.16885E-3,0
FLOCK 4BE-2,2024-149AV,2026-06-30T04:48:41.091840,15.54149312,.00046154,97.3841,268.8781,212.1837,147.9135,0,U,60511,999,10452,.83383046E-3,.54404E-3,0
FLOCK 4BE-13,2024-149AW,2026-06-30T04:46:37.665120,15.42229542,.00038531,97.3728,265.7477,203.7665,156.3405,0,U,60512,999,10437,.30715336E-3,.13115E-3,0
FLOCK 4BE-27,2024-149AX,2026-06-30T04:05:59.810496,15.34666793,.00025762,97.3830,263.0294,243.0316,117.0665,0,U,60513,999,10413,.25246204E-3,.8403E-4,0
FLOCK 4BE-9,2024-149AY,2026-06-30T11:12:25.958304,15.41182029,.00022799,97.3797,265.8701,217.4815,142.6273,0,U,60514,999,10436,.35126708E-3,.14496E-3,0
FLOCK 4BE-14,2024-149BB,2026-06-30T05:13:52.942368,15.41395275,.00038366,97.3702,265.1001,228.7095,131.3822,0,U,60517,999,10433,.35462316E-3,.14742E-3,0
FLOCK 4BE-1,2024-149BC,2026-06-30T05:17:10.613472,15.43021623,.0003605,97.3786,266.4268,227.4863,132.6081,0,U,60518,999,10438,.36800763E-3,.16159E-3,0
FLOCK 4BE-28,2024-149BD,2026-06-30T12:55:41.564928,15.45364279,.00037187,97.3756,267.5152,219.7135,140.3842,0,U,60519,999,10450,.38382331E-3,.18254E-3,0
IPERDRONE.0,2024-149BE,2026-06-30T04:49:39.961344,15.68606801,.00042581,97.3784,275.0719,197.4799,162.6317,0,U,60520,999,10495,.65532517E-3,.74708E-3,0
TRANSPORTER-11 OBJECT BF,2024-149BF,2026-06-30T05:39:03.718944,15.92274722,.00068408,97.3726,278.2513,230.4226,129.6444,0,U,60521,999,10515,.10485426E-2,.350022E-2,.48623257E-4
CONNECTA IOT-2,2024-149BG,2026-06-30T04:19:40.442880,15.24080152,.00047846,97.3840,259.1289,279.9378,80.1319,0,U,60522,999,10387,.17569389E-3,.4195E-4,0
ORESAT0.5,2024-149BK,2026-06-30T04:45:59.506560,15.45561146,.00049014,97.3732,267.4014,216.5475,143.5440,0,U,60525,999,10448,.38214273E-3,.18299E-3,0
DEIMOS,2024-149BL,2026-06-30T05:42:54.362880,15.44678882,.00047667,97.3788,267.5753,224.0131,136.0739,0,U,60526,999,10446,.37526287E-3,.17434E-3,0
ERNST,2024-149BN,2026-06-30T04:05:41.665632,15.39538991,.00048405,97.3814,264.9898,236.5926,123.4858,0,U,60528,999,10427,.32133775E-3,.12554E-3,0
LEMU NGE,2024-149BS,2026-06-30T04:04:48.982368,14.95008462,.00014981,97.6846,255.8672,56.8296,303.3068,0,U,60532,999,10189,.20568603E-3,.2193E-4,0
LEMUR-2-STELLA,2024-149BT,2026-06-30T04:27:36.969120,15.12073818,.00011286,97.6739,263.6990,99.0249,261.1108,0,U,60533,999,10246,.61049283E-3,.10444E-3,0
LEMUR-2-MARHISYAM,2024-149BW,2026-06-30T16:48:48.266496,15.11517005,.00032233,97.6886,264.6795,90.9047,269.2552,0,U,60536,999,10252,.60559761E-3,.10201E-3,0
ICEYE-X43,2024-149BZ,2026-06-30T15:21:53.947872,14.99715461,.00077982,97.6823,258.4227,43.8927,316.2915,0,U,60539,999,10213,.31191978E-3,.3793E-4,0
