FLOCK 4BE-29            
1 60509U 24149AT  26181.20377055  .00016885  00000+0  36508-3 0  9999
2 60509  97.3822 267.2755 0002207 216.4069 143.7030 15.44561964104420
FLOCK 4BE-2             
1 60511U 24149AV  26181.20047560  .00054404  00000+0  83383-3 0  9999
2 60511  97.3841 268.8781 0004615 212.1837 147.9135 15.54149312104524
FLOCK 4BE-13            
1 60512U 24149AW  26181.19904705  .00013115  00000+0  30715-3 0  9996
2 60512  97.3728 265.7477 0003853 203.7665 156.3405 15.42229542104373
FLOCK 4BE-27            
1 60513U 24149AX  26181.17083114  .00008403  00000+0  25246-3 0  9994
2 60513  97.3830 263.0294 0002576 243.0316 117.0665 15.34666793104137
FLOCK 4BE-9             
1 60514U 24149AY  26181.46696711  .00014496  00000+0  35127-3 0  9998
2 60514  97.3797 265.8701 0002279 217.4815 142.6273 15.41182029104369
FLOCK 4BE-14            
1 60517U 24149BB  26181.21797387  .00014742  00000+0  35462-3 0  9991
2 60517  97.3702 265.1001 0003836 228.7095 131.3822 15.41395275104330
FLOCK 4BE-1             
1 60518U 24149BC  26181.22026173  .00016159  00000+0  36801-3 0  9993
2 60518  97.3786 266.4268 0003605 227.4863 132.6081 15.43021623104386
FLOCK 4BE-28            
1 60519U 24149BD  26181.53867552  .00018254  00000+0  38382-3 0  9996
2 60519  97.3756 267.5152 0003718 219.7135 140.3842 15.45364279104503
IPERDRONE.0             
1 60520U 24149BE  26181.20115696  .00074708  00000+0  65533-3 0  9991
2 60520  97.3784 275.0719 0004258 197.4799 162.6317 15.68606801104955
TRANSPORTER-11 OBJECT BF
1 60521U 24149BF  26181.23545971  .00350022  48623-4  10485-2 0  9997
2 60521  97.3726 278.2513 0006840 230.4226 129.6444 15.92274722105158
CONNECTA IOT-2          
1 60522U 24149BG  26181.18032920  .00004195  00000+0  17569-3 0  9997
2 60522  97.3840 259.1289 0004784 279.9378  80.1319 15.24080152103871
ORESAT0.5               
1 60525U 24149BK  26181.19860540  .00018299  00000+0  38214-3 0  9998
2 60525  97.3732 267.4014 0004901 216.5475 143.5440 15.45561146104485
DEIMOS                  
1 60526U 24149BL  26181.23812920  .00017434  00000+0  37526-3 0  9998
2 60526  97.3788 267.5753 0004766 224.0131 136.0739 15.44678882104461
ERNST                   
1 60528U 24149BN  26181.17062113  .00012554  00000+0  32134-3 0  9992
2 60528  97.3814 264.9898 0004840 236.5926 123.4858 15.39538991104278
LEMU NGE                
1 60532U 24149BS  26181.17001137  .00002193  00000+0  20569-3 0  9993
2 60532  97.6846 255.8672 0001498  56.8296 303.3068 14.95008462101892
LEMUR-2-STELLA          
1 60533U 24149BT  26181.18584455  .00010444  00000+0  61049-3 0  9990
2 60533  97.6739 263.6990 0001128  99.0249 261.1108 15.12073818102468
LEMUR-2-MARHISYAM       
1 60536U 24149BW  26181.70055863  .00010201  00000+0  60560-3 0  9995
2 60536  97.6886 264.6795 0003223  90.9047 269.2552 15.11517005102521
ICEYE-X43               
1 60539U 24149BZ  26181.64020772  .00003793  00000+0  31192-3 0  9999
2 60539  97.6823 258.4227 0007798  43.8927 316.2915 14.99715461102135
